[{"OBJECT_NAME":"POLYITAN-1","OBJECT_ID":"2014-033AJ","EPOCH":"2026-03-09T22:27:50.258304","MEAN_MOTION":15.29568085,"ECCENTRICITY":0.00093607,"INCLINATION":98.1053,"RA_OF_ASC_NODE":86.0432,"ARG_OF_PERICENTER":127.248,"MEAN_ANOMALY":232.9614,"EPHEMERIS_TYPE":0,"CLASSIFICATION_TYPE":"U","NORAD_CAT_ID":40042,"ELEMENT_SET_NO":999,"REV_AT_EPOCH":63840,"BSTAR":0.00083772474,"MEAN_MOTION_DOT":0.00024003,"MEAN_MOTION_DDOT":0},{"OBJECT_NAME":"STARLINK-30528","OBJECT_ID":"2023-151D","EPOCH":"2026-03-09T01:41:03.497568","MEAN_MOTION":15.27575133,"ECCENTRICITY":0.00013391,"INCLINATION":43.0001,"RA_OF_ASC_NODE":339.3327,"ARG_OF_PERICENTER":277.3865,"MEAN_ANOMALY":82.6834,"EPHEMERIS_TYPE":0,"CLASSIFICATION_TYPE":"U","NORAD_CAT_ID":57967,"ELEMENT_SET_NO":999,"REV_AT_EPOCH":13567,"BSTAR":-5.9647529e-5,"MEAN_MOTION_DOT":-1.903e-5,"MEAN_MOTION_DDOT":0}]
